CTC2_L_00318001-01
1 68821U 23625KD  26070.40846065  .00000000  00000+0  00000-0 0  9990
2 68821  65.0000   0.0000 0000000   0.0000   0.0000 13.69880518    18
CTC2_L_00318001-02
1 68822U 24957LD  26070.40846065  .00000000  00000+0  00000-0 0  9990
2 68822  65.0000   0.0000 0000000   0.0000  90.0000 13.69880518    18
CTC2_L_00318001-03
1 68823U 22503YP  26070.40846065  .00000000  00000+0  00000-0 0  9996
2 68823  65.0000   0.0000 0000000   0.0000 180.0000 13.69880518    19
CTC2_L_00318001-04
1 68824U 24309WS  26070.40846065  .00000000  00000+0  00000-0 0  9993
2 68824  65.0000   0.0000 0000000   0.0000 270.0000 13.69880518    10
CTC2_L_00318002-01
1 68825U 23584MV  26070.40846065  .00000000  00000+0  00000-0 0  9998
2 68825  65.0000  12.0000 0000000   0.0000  12.0000 13.69880518    18
CTC2_L_00318002-02
1 68826U 25418AC  26070.40846065  .00000000  00000+0  00000-0 0  9997
2 68826  65.0000  12.0000 0000000   0.0000 102.0000 13.69880518    19
CTC2_L_00318002-03
1 68827U 24367SC  26070.40846065  .00000000  00000+0  00000-0 0  9990
2 68827  65.0000  12.0000 0000000   0.0000 192.0000 13.69880518    19
CTC2_L_00318002-04
1 68828U 24048KZ  26070.40846065  .00000000  00000+0  00000-0 0  9997
2 68828  65.0000  12.0000 0000000   0.0000 282.0000 13.69880518    10
CTC2_L_00318003-01
1 68829U 22017YE  26070.40846065  .00000000  00000+0  00000-0 0  9992
2 68829  65.0000  24.0000 0000000   0.0000  24.0000 13.69880518    18
CTC2_L_00318003-02
1 68830U 26857LG  26070.40846065  .00000000  00000+0  00000-0 0  9990
2 68830  65.0000  24.0000 0000000   0.0000 114.0000 13.69880518    10
CTC2_L_00318003-03
1 68831U 23959DG  26070.40846065  .00000000  00000+0  00000-0 0  9991
2 68831  65.0000  24.0000 0000000   0.0000 204.0000 13.69880518    11
CTC2_L_00318003-04
1 68832U 22497S   26070.40846065  .00000000  00000+0  00000-0 0  9998
2 68832  65.0000  24.0000 0000000   0.0000 294.0000 13.69880518    11
CTC2_L_00318004-01
1 68833U 22154IH  26070.40846065  .00000000  00000+0  00000-0 0  9999
2 68833  65.0000  36.0000 0000000   0.0000  36.0000 13.69880518    19
CTC2_L_00318004-02
1 68834U 25682EX  26070.40846065  .00000000  00000+0  00000-0 0  9999
2 68834  65.0000  36.0000 0000000   0.0000 126.0000 13.69880518    10
CTC2_L_00318004-03
1 68835U 22293SS  26070.40846065  .00000000  00000+0  00000-0 0  9995
2 68835  65.0000  36.0000 0000000   0.0000 216.0000 13.69880518    11
CTC2_L_00318004-04
1 68836U 22040LU  26070.40846065  .00000000  00000+0  00000-0 0  9996
2 68836  65.0000  36.0000 0000000   0.0000 306.0000 13.69880518    12
CTC2_L_00318005-01
1 68837U 22250BR  26070.40846065  .00000000  00000+0  00000-0 0  9990
2 68837  65.0000  48.0000 0000000   0.0000  48.0000 13.69880518    19
CTC2_L_00318005-02
1 68838U 23133RQ  26070.40846065  .00000000  00000+0  00000-0 0  9992
2 68838  65.0000  48.0000 0000000   0.0000 138.0000 13.69880518    10
CTC2_L_00318005-03
1 68839U 25629QT  26070.40846065  .00000000  00000+0  00000-0 0  9995
2 68839  65.0000  48.0000 0000000   0.0000 228.0000 13.69880518    11
CTC2_L_00318005-04
1 68840U 22129NN  26070.40846065  .00000000  00000+0  00000-0 0  9999
2 68840  65.0000  48.0000 0000000   0.0000 318.0000 13.69880518    13
CTC2_L_00318006-01
1 68841U 23584SE  26070.40846065  .00000000  00000+0  00000-0 0  9996
2 68841  65.0000  60.0000 0000000   0.0000  60.0000 13.69880518    12
CTC2_L_00318006-02
1 68842U 24011Q   26070.40846065  .00000000  00000+0  00000-0 0  9993
2 68842  65.0000  60.0000 0000000   0.0000 150.0000 13.69880518    13
CTC2_L_00318006-03
1 68843U 23196MZ  26070.40846065  .00000000  00000+0  00000-0 0  9997
2 68843  65.0000  60.0000 0000000   0.0000 240.0000 13.69880518    14
CTC2_L_00318006-04
1 68844U 24169WL  26070.40846065  .00000000  00000+0  00000-0 0  9999
2 68844  65.0000  60.0000 0000000   0.0000 330.0000 13.69880518    15
CTC2_L_00318007-01
1 68845U 22485B   26070.40846065  .00000000  00000+0  00000-0 0  9999
2 68845  65.0000  72.0000 0000000   0.0000  72.0000 13.69880518    12
CTC2_L_00318007-02
1 68846U 22718BB  26070.40846065  .00000000  00000+0  00000-0 0  9999
2 68846  65.0000  72.0000 0000000   0.0000 162.0000 13.69880518    13
CTC2_L_00318007-03
1 68847U 26115CP  26070.40846065  .00000000  00000+0  00000-0 0  9995
2 68847  65.0000  72.0000 0000000   0.0000 252.0000 13.69880518    14
CTC2_L_00318007-04
1 68848U 22349RT  26070.40846065  .00000000  00000+0  00000-0 0  9991
2 68848  65.0000  72.0000 0000000   0.0000 342.0000 13.69880518    15
CTC2_L_00318008-01
1 68849U 24072OT  26070.40846065  .00000000  00000+0  00000-0 0  9997
2 68849  65.0000  84.0000 0000000   0.0000  84.0000 13.69880518    12
CTC2_L_00318008-02
1 68850U 26434IR  26070.40846065  .00000000  00000+0  00000-0 0  9993
2 68850  65.0000  84.0000 0000000   0.0000 174.0000 13.69880518    14
CTC2_L_00318008-03
1 68851U 24635RL  26070.40846065  .00000000  00000+0  00000-0 0  9995
2 68851  65.0000  84.0000 0000000   0.0000 264.0000 13.69880518    15
CTC2_L_00318008-04
1 68852U 26221QE  26070.40846065  .00000000  00000+0  00000-0 0  9999
2 68852  65.0000  84.0000 0000000   0.0000 354.0000 13.69880518    16
CTC2_L_00318009-01
1 68853U 25093GF  26070.40846065  .00000000  00000+0  00000-0 0  9996
2 68853  65.0000  96.0000 0000000   0.0000  96.0000 13.69880518    13
CTC2_L_00318009-02
1 68854U 24436HT  26070.40846065  .00000000  00000+0  00000-0 0  9997
2 68854  65.0000  96.0000 0000000   0.0000 186.0000 13.69880518    14
CTC2_L_00318009-03
1 68855U 22204NV  26070.40846065  .00000000  00000+0  00000-0 0  9999
2 68855  65.0000  96.0000 0000000   0.0000 276.0000 13.69880518    15
CTC2_L_00318009-04
1 68856U 24499ZV  26070.40846065  .00000000  00000+0  00000-0 0  9998
2 68856  65.0000  96.0000 0000000   0.0000   6.0000 13.69880518    17
CTC2_L_00318010-01
1 68857U 24096VX  26070.40846065  .00000000  00000+0  00000-0 0  9992
2 68857  65.0000 108.0000 0000000   0.0000 108.0000 13.69880518    15
CTC2_L_00318010-02
1 68858U 26510TP  26070.40846065  .00000000  00000+0  00000-0 0  9996
2 68858  65.0000 108.0000 0000000   0.0000 198.0000 13.69880518    15
CTC2_L_00318010-03
1 68859U 22585NC  26070.40846065  .00000000  00000+0  00000-0 0  9995
2 68859  65.0000 108.0000 0000000   0.0000 288.0000 13.69880518    16
CTC2_L_00318010-04
1 68860U 26085LZ  26070.40846065  .00000000  00000+0  00000-0 0  9996
2 68860  65.0000 108.0000 0000000   0.0000  18.0000 13.69880518    19
CTC2_L_00318011-01
1 68861U 26502SH  26070.40846065  .00000000  00000+0  00000-0 0  9991
2 68861  65.0000 120.0000 0000000   0.0000 120.0000 13.69880518    18
CTC2_L_00318011-02
1 68862U 26314FE  26070.40846065  .00000000  00000+0  00000-0 0  9993
2 68862  65.0000 120.0000 0000000   0.0000 210.0000 13.69880518    19
CTC2_L_00318011-03
1 68863U 26083ZP  26070.40846065  .00000000  00000+0  00000-0 0  9997
2 68863  65.0000 120.0000 0000000   0.0000 300.0000 13.69880518    10
CTC2_L_00318011-04
1 68864U 25996SI  26070.40846065  .00000000  00000+0  00000-0 0  9990
2 68864  65.0000 120.0000 0000000   0.0000  30.0000 13.69880518    11
CTC2_L_00318012-01
1 68865U 26120IS  26070.40846065  .00000000  00000+0  00000-0 0  9991
2 68865  65.0000 132.0000 0000000   0.0000 132.0000 13.69880518    18
CTC2_L_00318012-02
1 68866U 23551PJ  26070.40846065  .00000000  00000+0  00000-0 0  9997
2 68866  65.0000 132.0000 0000000   0.0000 222.0000 13.69880518    19
CTC2_L_00318012-03
1 68867U 25644NF  26070.40846065  .00000000  00000+0  00000-0 0  9993
2 68867  65.0000 132.0000 0000000   0.0000 312.0000 13.69880518    10
CTC2_L_00318012-04
1 68868U 24545ZO  26070.40846065  .00000000  00000+0  00000-0 0  9993
2 68868  65.0000 132.0000 0000000   0.0000  42.0000 13.69880518    11
CTC2_L_00318013-01
1 68869U 24915ZN  26070.40846065  .00000000  00000+0  00000-0 0  9995
2 68869  65.0000 144.0000 0000000   0.0000 144.0000 13.69880518    18
CTC2_L_00318013-02
1 68870U 24579VV  26070.40846065  .00000000  00000+0  00000-0 0  9993
2 68870  65.0000 144.0000 0000000   0.0000 234.0000 13.69880518    10
CTC2_L_00318013-03
1 68871U 25252ZK  26070.40846065  .00000000  00000+0  00000-0 0  9993
2 68871  65.0000 144.0000 0000000   0.0000 324.0000 13.69880518    11
CTC2_L_00318013-04
1 68872U 25053ZU  26070.40846065  .00000000  00000+0  00000-0 0  9993
2 68872  65.0000 144.0000 0000000   0.0000  54.0000 13.69880518    12
CTC2_L_00318014-01
1 68873U 25342QW  26070.40846065  .00000000  00000+0  00000-0 0  9995
2 68873  65.0000 156.0000 0000000   0.0000 156.0000 13.69880518    19
CTC2_L_00318014-02
1 68874U 26346FE  26070.40846065  .00000000  00000+0  00000-0 0  9991
2 68874  65.0000 156.0000 0000000   0.0000 246.0000 13.69880518    10
CTC2_L_00318014-03
1 68875U 23907PN  26070.40846065  .00000000  00000+0  00000-0 0  9992
2 68875  65.0000 156.0000 0000000   0.0000 336.0000 13.69880518    11
CTC2_L_00318014-04
1 68876U 23548SB  26070.40846065  .00000000  00000+0  00000-0 0  9994
2 68876  65.0000 156.0000 0000000   0.0000  66.0000 13.69880518    12
CTC2_L_00318015-01
1 68877U 26287DN  26070.40846065  .00000000  00000+0  00000-0 0  9998
2 68877  65.0000 168.0000 0000000   0.0000 168.0000 13.69880518    19
CTC2_L_00318015-02
1 68878U 23445VP  26070.40846065  .00000000  00000+0  00000-0 0  9992
2 68878  65.0000 168.0000 0000000   0.0000 258.0000 13.69880518    10
CTC2_L_00318015-03
1 68879U 23423QO  26070.40846065  .00000000  00000+0  00000-0 0  9999
2 68879  65.0000 168.0000 0000000   0.0000 348.0000 13.69880518    11
CTC2_L_00318015-04
1 68880U 23226CX  26070.40846065  .00000000  00000+0  00000-0 0  9992
2 68880  65.0000 168.0000 0000000   0.0000  78.0000 13.69880518    13
CTC2_L_00318016-01
1 68881U 25283CJ  26070.40846065  .00000000  00000+0  00000-0 0  9998
2 68881  65.0000 180.0000 0000000   0.0000 180.0000 13.69880518    12
CTC2_L_00318016-02
1 68882U 22711QC  26070.40846065  .00000000  00000+0  00000-0 0  9992
2 68882  65.0000 180.0000 0000000   0.0000 270.0000 13.69880518    13
